KUIPER-00008            
1 63724U 25088A   26062.75002315 -.01783148  00000+0 -18206+0 0  9993
2 63724  51.8921 114.1482 0009597  73.3765  99.6291 14.93969131  5256
KUIPER-00009            
1 63725U 25088B   26062.63770692 -.00008508  00000+0 -10884-2 0  9997
2 63725  51.9044 133.4007 0007712  79.2172 280.9658 14.79902997 46882
KUIPER-00010            
1 63726U 25088C   26062.56242049 -.00000263  00000+0 -54409-5 0  9994
2 63726  51.9006 110.1868 0000657  90.5434 269.5604 14.79933758 46823
KUIPER-00011            
1 63727U 25088D   26062.45271142  .00005112  00000+0  69755-3 0  9993
2 63727  51.8997 118.2344 0000406  59.2594 300.8408 14.80027083 46830
KUIPER-00012            
1 63728U 25088E   26062.58336806  .00023462  00000+0  30810-2 0  9994
2 63728  51.8997 102.5846 0000837 318.0085 110.1831 14.80134748  3688
KUIPER-00013            
1 63729U 25088F   26062.56921431 -.00003304  00000+0 -40591-3 0  9990
2 63729  51.9003 135.1590 0002899  29.0532 331.0591 14.79793319 46667
KUIPER-00014            
1 63730U 25088G   26062.49991019  .00006431  00000+0  87072-3 0  9990
2 63730  51.9013 136.4380 0000405  17.5183 342.5794 14.79982547 46458
KUIPER-00015            
1 63731U 25088H   26062.66038384  .00008095  00000+0  99876-3 0  9990
2 63731  51.8986 145.1515 0009719  55.0068 305.1807 14.83576691 46803
KUIPER-00016            
1 63732U 25088J   26062.63239598  .00006262  00000+0  85141-3 0  9992
2 63732  51.9011 138.3820 0006456  58.1210 302.0380 14.79839712 46437
KUIPER-00018            
1 63733U 25088K   26062.75002315 -.00028701  00000+0 -37334-2 0  9995
2 63733  51.9014 126.8321 0002803  87.9808 113.5604 14.80136549  2856
KUIPER-00019            
1 63734U 25088L   26062.57836157 -.00000051  00000+0  22373-4 0  9991
2 63734  51.8996 126.1201 0000622 113.4152 246.6876 14.79941075 46605
KUIPER-00020            
1 63735U 25088M   26062.57461440  .00003368  00000+0  47122-3 0  9992
2 63735  51.9016 130.1296 0006711  65.7209 294.4453 14.79884890 46755
KUIPER-00021            
1 63736U 25088N   26062.57299832  .00009996  00000+0  13372-2 0  9999
2 63736  51.9008 131.1335 0003305  71.8347 288.2975 14.79965300 46575
KUIPER-00023            
1 63737U 25088P   26062.57188354  .00005396  00000+0  73641-3 0  9992
2 63737  51.8992 132.5976 0008962  82.4037 277.7943 14.79915619 46858
KUIPER-00024            
1 63738U 25088Q   26062.45033773  .00000862  00000+0  14200-3 0  9993
2 63738  51.9044 120.7046 0000748  77.8209 282.2837 14.79933464 47131
KUIPER-00025            
1 63739U 25088R   26062.42967785  .00001322  00000+0  18688-3 0  9996
2 63739  51.9028 129.1898 0000251  53.5576 306.5411 14.83449957 46871
KUIPER-00027            
1 63740U 25088S   26062.38008511  .00000176  00000+0  52169-4 0  9995
2 63740  51.9020 123.4863 0000804 107.6641 252.4409 14.79914815 46682
